KUIPER-00044            
1 64505U 25134F   26015.67166651  .00002365  00000+0  33921-3 0  9993
2 64505  51.8998 121.0362 0011588  97.0224 263.2057 14.79926876 32036
KUIPER-00046            
1 64506U 25134G   26016.00002315 -.00018725  00000+0 -26308-2 0  9997
2 64506  51.8986 115.9584 0010643 108.1959 226.7683 14.76610705  5095
KUIPER-00047            
1 64507U 25134H   26015.39062481  .00002303  00000+0  35703-3 0  9992
2 64507  51.9003  90.4461 0001255 353.2442   6.8502 14.76634280 32436
KUIPER-00048            
1 64508U 25134J   26015.36794417  .00001664  00000+0  24704-3 0  9999
2 64508  51.9002  91.3696 0002185 255.6721 104.3999 14.79964055 32426
KUIPER-00049            
1 64509U 25134K   26015.48787696  .00001006  00000+0  16109-3 0  9994
2 64509  51.9024 104.3127 0002373 121.9436 238.1757 14.79922403 32252
KUIPER-00050            
1 64510U 25134L   26015.36146707  .00001050  00000+0  11259-3 0  9995
2 64510  51.8900  94.3154 0004791 134.9680 225.1679 14.96995664 32386
KUIPER-00051            
1 64511U 25134M   26015.42307459  .00001743  00000+0  25726-3 0  9999
2 64511  51.9025 102.1699 0001854 119.6348 240.4799 14.79991651 32270
KUIPER-00052            
1 64512U 25134N   26015.95222264  .00266127  00000+0  13645-2 0  9993
2 64512  51.8573  19.5302 0002582  92.2560 267.8740 15.79958962 33450
